COMMENT,ORIGINATOR,NORAD_CAT_ID,OBJECT_NAME,OBJECT_TYPE,CLASSIFICATION_TYPE,INTLDES,EPOCH,EPOCH_MICROSECONDS,MEAN_MOTION,ECCENTRICITY,INCLINATION,RA_OF_ASC_NODE,ARG_OF_PERICENTER,MEAN_ANOMALY,EPHEMERIS_TYPE,ELEMENT_SET_NO,REV_AT_EPOCH,BSTAR,MEAN_MOTION_DOT,MEAN_MOTION_DDOT,FILE,TLE_LINE0,TLE_LINE1,TLE_LINE2,OBJECT_ID,OBJECT_NUMBER,SEMIMAJOR_AXIS,PERIOD,APOGEE,PERIGEE
"GENERATED VIA SPACETRACK.ORG API","JSPOC","39270","POPACS 3","PAYLOAD","U","13055F","2016-01-12 20:02:52","212192","14.09741685","0.0737576","81.01","198.5702","328.5637","27.3352","0","999","9651","0.00015173","4.573e-05","0","1979855","0 POPACS 3","1 39270U 13055F   16012.83532653 +.00004573 +00000-0 +15173-3 0  9999","2 39270 081.0100 198.5702 0737576 328.5637 027.3352 14.09741685096512","2013-055F","39270","7238.392","102.146","1394.144","326.371"
"GENERATED VIA SPACETRACK.ORG API","JSPOC","38744","TELKOM 3","PAYLOAD","U","12044A","2016-01-12 20:02:53","394144","12.07974437","0.1731427","49.8901","277.3737","161.3071","206.0385","0","999","3817","0.0014746","0.00082577","0","1979855","0 TELKOM 3","1 38744U 12044A   16012.83534021 +.00082577 +53299-5 +14746-2 0  9999","2 38744 049.8901 277.3737 1731427 161.3071 206.0385 12.07974437038176","2012-044A","38744","8023.490","119.207","3034.564","256.146"
"GENERATED VIA SPACETRACK.ORG API","JSPOC","19169","SL-12 R/B(AUX MOTOR)","ROCKET BODY","U","88043G","2016-01-12 20:02:58","31232","4.25869331","0.5789292","65.0994","196.2872","164.3755","226.4005","0","999","42834","0.00091756","1.067e-05","0","1979730","0 SL-12 R/B(AUX MOTOR)","1 19169U 88043G   16012.83539388  .00001067  00000-0  91756-3 0  9991","2 19169  65.0994 196.2872 5789292 164.3755 226.4005  4.25869331428340","1988-043G","19169","16077.465","338.131","19007.045","391.616"
"GENERATED VIA SPACETRACK.ORG API","JSPOC","26032","KOMPSAT","PAYLOAD","U","99070A","2016-01-12 20:02:59","210592","14.6870305","0.0005413","97.8011","173.5921","136.0295","224.135","0","999","85938","9.0404e-05","4.81e-06","0","1979580","0 KOMPSAT","1 26032U 99070A   16012.83540753  .00000481  00000-0  90404-4 0  9997","2 26032  97.8011 173.5921 0005413 136.0295 224.1350 14.68703050859382","1999-070A","26032","7043.348","98.045","669.026","661.400"
"GENERATED VIA SPACETRACK.ORG API","JSPOC","26631","EROS A1","PAYLOAD","U","00079A","2016-01-12 20:03:06","925248","15.58031591","0.0003583","97.5458","117.1081","328.1334","185.1785","0","999","83895","0.00082025","0.00061792","0","1979595","0 EROS A1","1 26631U 00079A   16012.83549682  .00061792  00000-0  82025-3 0  9994","2 26631  97.5458 117.1081 0003583 328.1334 185.1785 15.58031591838956","2000-079A","26631","6771.491","92.424","395.782","390.930"
"GENERATED VIA SPACETRACK.ORG API","JSPOC","16759","COSMOS 1749","PAYLOAD","U","86042B","2016-01-12 20:03:11","596896","12.58049561","0.0048226","74.0184","127.7745","175.5017","356.9939","0","999","35948","8.8872e-05","-1e-08","0","1979855","0 COSMOS 1749","1 16759U 86042B   16012.83555089 -.00000001 +00000-0 +88872-4 0  9990","2 16759 074.0184 127.7745 0048226 175.5017 356.9939 12.58049561359489","1986-042B","16759","7809.142","114.462","1468.667","1393.347"
"GENERATED VIA SPACETRACK.ORG API","JSPOC","11896","MOLNIYA 3-13","PAYLOAD","U","80063A","2016-01-12 20:03:12","996576","2.0064026","0.7238307","62.782","120.3287","263.0231","17.566","0","999","26004","-0.0072871","8.2e-07","0","1979588","0 MOLNIYA 3-13","1 11896U 80063A   16012.83556709  .00000082  00000-0 -72871-2 0  9993","2 11896  62.7820 120.3287 7238307 263.0231  17.5660  2.00640260260049","1980-063A","11896","26553.582","717.702","39395.745","955.149"
"GENERATED VIA SPACETRACK.ORG API","JSPOC","35867","FREGAT/IRIS","PAYLOAD","U","09049C","2016-01-12 20:03:17","758944","15.50610143","0.0005105","97.0918","38.5919","345.3022","67.1805","0","999","35321","0.00018499","0.00010507","0","1979582","0 FREGAT/IRIS","1 35867U 09049C   16012.83562221  .00010507  00000-0  18499-3 0  9997","2 35867  97.0918  38.5919 0005105 345.3022  67.1805 15.50610143353217","2009-049C","35867","6793.080","92.866","418.413","411.477"
"GENERATED VIA SPACETRACK.ORG API","JSPOC","11273","EKRAN 3","PAYLOAD","U","79015A","2016-01-12 20:03:20","377728","1.00274008","0.0040908","13.143","326.9195","258.8844","286.788","0","999","9682","0","-3.12e-06","0","1979855","0 EKRAN 3","1 11273U 79015A   16012.83565252 -.00000312 +00000-0 +00000-0 0  9999","2 11273 013.1430 326.9195 0040908 258.8844 286.7880 01.00274008096829","1979-015A","11273","42164.108","1436.065","35958.458","35613.488"
"GENERATED VIA SPACETRACK.ORG API","JSPOC","22913","ARIANE 44LP+ R/B","ROCKET BODY","U","93073C","2016-01-12 20:03:25","819200","7.00621104","0.4260587","6.7247","198.827","94.4694","313.8896","0","999","38247","0.0017624","0.00046348","0","1979566","0 ARIANE 44LP+ R/B","1 22913U 93073C   16012.83571550  .00046348  00000-0  17624-2 0  9990","2 22913   6.7247 198.8270 4260587  94.4694 313.8896  7.00621104382471","1993-073C","22913","11536.649","205.531","10073.804","243.224"
"GENERATED VIA SPACETRACK.ORG API","JSPOC","19710","STTW-3","PAYLOAD","U","88111A","2016-01-12 20:03:38","953728","1.00284004","0.0003787","14.77","19.9311","106.8879","37.292","0","999","9266","0","-3.67e-06","0","1979541","0 STTW-3","1 19710U 88111A   16012.83586752 -.00000367  00000-0  00000+0 0  9997","2 19710  14.7700  19.9311 0003787 106.8879  37.2920  1.00284004 92662","1988-111A","19710","42161.306","1435.921","35799.138","35767.205"
"GENERATED VIA SPACETRACK.ORG API","JSPOC","33396","THEOS","PAYLOAD","U","08049A","2016-01-12 20:03:38","227968","14.20018424","0.0001093","98.7448","82.1286","92.9404","41.5991","0","999","37748","3.5233e-05","3.1e-07","0","1979595","0 THEOS","1 33396U 08049A   16012.83585912  .00000031  00000-0  35233-4 0  9990","2 33396  98.7448  82.1286 0001093  92.9404  41.5991 14.20018424377488","2008-049A","33396","7203.427","101.407","826.079","824.505"
"GENERATED VIA SPACETRACK.ORG API","JSPOC","26081","GLOBALSTAR M063","PAYLOAD","U","00008A","2016-01-12 20:03:48","729024","12.62268372","0.0002262","51.9963","136.3764","97.8883","70.2108","0","999","74308","-5.1951e-05","-1.13e-06","0","1979855","0 GLOBALSTAR M063","1 26081U 00008A   16012.83598066 -.00000113 +00000-0 -51951-4 0  9992","2 26081 051.9963 136.3764 0002262 097.8883 070.2108 12.62268372743086","2000-008A","26081","7791.732","114.080","1415.360","1411.835"
"GENERATED VIA SPACETRACK.ORG API","JSPOC","22563","UFO 1 (USA 98)","PAYLOAD","U","93015A","2016-01-12 20:03:57","807936","0.99252559","0.0009405","17.8623","140.8832","141.4083","251.7435","0","999","8703","0","-2.15e-06","0","1979518","0 UFO 1 (USA 98)","1 22563U 93015A   16012.83608574 -.00000215  00000-0  00000+0 0  9995","2 22563  17.8623 140.8832 0009405 141.4083 251.7435  0.99252559 87033","1993-015A","22563","42452.900","1450.844","36114.692","36034.838"
"GENERATED VIA SPACETRACK.ORG API","JSPOC","39497","COSMOS 2491","PAYLOAD","U","13076E","2016-01-12 20:04:06","217248","12.42671831","0.0018537","82.4838","22.3707","121.946","238.3428","0","999","9280","0.0001","2.4e-07","0","1979855","0 COSMOS 2491","1 39497U 13076E   16012.83618307 +.00000024 +00000-0 +10000-3 0  9995","2 39497 082.4838 022.3707 0018537 121.9460 238.3428 12.42671831092809","2013-076E","39497","7873.434","115.879","1509.894","1480.704"
"GENERATED VIA SPACETRACK.ORG API","JSPOC","24285","FAST","PAYLOAD","U","96049A","2016-01-12 20:04:08","749632","11.49379965","0.1890381","82.9638","272.959","213.0391","133.7337","0","999","79095","0.00028839","3.44e-05","0","1979855","0 FAST","1 24285U 96049A   16012.83621238 +.00003440 +00000-0 +28839-3 0  9996","2 24285 082.9638 272.9590 1890381 213.0391 133.7337 11.49379965790953","1996-049A","24285","8293.912","125.284","3483.642","347.911"
"GENERATED VIA SPACETRACK.ORG API","JSPOC","4259","OPS 7613 (P/L 3)","PAYLOAD","U","69082D","2016-01-12 20:04:10","449120","13.94682476","0.0018014","70.0159","335.2136","60.9306","314.0946","0","999","45081","2.3984e-05","-2e-07","0","1979855","0 OPS 7613 (P/L 3)","1  4259U 69082D   16012.83623205 -.00000020 +00000-0 +23984-4 0  9997","2  4259 070.0159 335.2136 0018014 060.9306 314.0946 13.94682476450810","1969-082D","4259","7290.404","103.249","925.402","899.136"
"GENERATED VIA SPACETRACK.ORG API","JSPOC","15597","COSMOS 1634","PAYLOAD","U","85022A","2016-01-12 20:04:10","918272","13.75031831","0.0034916","82.9404","158.5834","220.6152","304.7114","0","999","54683","5.7776e-05","7e-07","0","1979855","0 COSMOS 1634","1 15597U 85022A   16012.83623748 +.00000070 +00000-0 +57776-4 0  9998","2 15597 082.9404 158.5834 0034916 220.6152 304.7114 13.75031831546839","1985-022A","15597","7359.698","104.724","1007.260","955.866"
"GENERATED VIA SPACETRACK.ORG API","JSPOC","22488","SL-8 R/B","ROCKET BODY","U","93008B","2016-01-12 20:04:28","37568","13.77683178","0.0024243","82.9441","106.412","244.5078","255.4436","0","999","15218","5.0693e-05","6.6e-07","0","1979855","0 SL-8 R/B","1 22488U 93008B   16012.83643562 +.00000066 +00000-0 +50693-4 0  9990","2 22488 082.9441 106.4120 0024243 244.5078 255.4436 13.77683178152180","1993-008B","22488","7350.252","104.523","989.936","954.298"
"GENERATED VIA SPACETRACK.ORG API","JSPOC","32783","CARTOSAT 2A","PAYLOAD","U","08021A","2016-01-12 20:04:36","467616","14.78642186","0.0012585","97.9991","73.4469","199.8754","160.1922","0","999","41609","2.9537e-05","1.64e-06","0","1979567","0 CARTOSAT 2A","1 32783U 08021A   16012.83653319  .00000164  00000-0  29537-4 0  9993","2 32783  97.9991  73.4469 0012585 199.8754 160.1922 14.78642186416094","2008-021A","32783","7011.750","97.386","642.439","624.791"
